start=new Date('2023-03-31T00:00:00.000Z').valueOf();
sats=[{"EPOCH":"2023-03-30T03:48:57.873024","DECAY_DATE":null,"FILE":"3875726","PERIOD":"95.437","CLASSIFICATION_TYPE":"U","TLE_LINE2":"2 49433  53.2164 357.3621 0001493  80.8627 279.2534 15.08850233 77631","EPHEMERIS_TYPE":"0","COUNTRY_CODE":"US","REF_FRAME":"TEME","CENTER_NAME":"EARTH","OBJECT_ID":"2021-104AB","TIME_SYSTEM":"UTC","OBJECT_NAME":"STARLINK-3079","LAUNCH_DATE":"2021-11-13","NORAD_CAT_ID":"49433","APOAPSIS":"540.747","SEMIMAJOR_AXIS":"6917.849","GP_ID":"229182456","MEAN_MOTION_DDOT":"0.0000000000000","RA_OF_ASC_NODE":"357.3621","MEAN_MOTION":"15.08850233","OBJECT_TYPE":"PAYLOAD","MEAN_ELEMENT_THEORY":"SGP4","SITE":"AFETR","INCLINATION":"53.2164","ECCENTRICITY":"0.00014930","MEAN_MOTION_DOT":"0.00013685","RCS_SIZE":"LARGE","BSTAR":"0.00087602000000","ARG_OF_PERICENTER":"80.8627","REV_AT_EPOCH":"7763","ELEMENT_SET_NO":"999","TLE_LINE1":"1 49433U 21104AB  23089.15900316  .00013685  00000-0  87602-3 0  9997","PERIAPSIS":"538.681","MEAN_ANOMALY":"279.2534"},{"OBJECT_NAME":"STARLINK-3134","TIME_SYSTEM":"UTC","OBJECT_ID":"2021-104AC","CENTER_NAME":"EARTH","COUNTRY_CODE":"US","REF_FRAME":"TEME","EPHEMERIS_TYPE":"0","TLE_LINE2":"2 49434  53.2175  15.7438 0000997  86.7775 273.3331 15.08834536 77405","PERIOD":"95.438","CLASSIFICATION_TYPE":"U","FILE":"3875726","DECAY_DATE":null,"EPOCH":"2023-03-30T12:32:19.101984","OBJECT_TYPE":"PAYLOAD","MEAN_MOTION":"15.08834536","RA_OF_ASC_NODE":"15.7438","MEAN_MOTION_DDOT":"0.0000000000000","GP_ID":"229182207","SEMIMAJOR_AXIS":"6917.897","NORAD_CAT_ID":"49434","APOAPSIS":"540.452","LAUNCH_DATE":"2021-11-13","RCS_SIZE":"LARGE","MEAN_MOTION_DOT":"0.00016142","ECCENTRICITY":"0.00009970","INCLINATION":"53.2175","SITE":"AFETR","MEAN_ELEMENT_THEORY":"SGP4","MEAN_ANOMALY":"273.3331","PERIAPSIS":"539.072","TLE_LINE1":"1 49434U 21104AC  23089.52244331  .00016142  00000-0  10301-2 0  9999","ELEMENT_SET_NO":"999","ARG_OF_PERICENTER":"86.7775","REV_AT_EPOCH":"7740","BSTAR":"0.00103010000000"},{"MEAN_MOTION_DDOT":"0.0000000000000","GP_ID":"229183458","OBJECT_TYPE":"PAYLOAD","RA_OF_ASC_NODE":"356.1537","MEAN_MOTION":"15.08857687","SEMIMAJOR_AXIS":"6917.826","APOAPSIS":"540.493","NORAD_CAT_ID":"49435","LAUNCH_DATE":"2021-11-13","CENTER_NAME":"EARTH","OBJECT_NAME":"STARLINK-3117","TIME_SYSTEM":"UTC","OBJECT_ID":"2021-104AD","CLASSIFICATION_TYPE":"U","PERIOD":"95.436","FILE":"3875726","DECAY_DATE":null,"EPOCH":"2023-03-30T10:17:10.058496","COUNTRY_CODE":"US","REF_FRAME":"TEME","EPHEMERIS_TYPE":"0","TLE_LINE2":"2 49435  53.2181 356.1537 0001159  99.1715 260.9408 15.08857687 76585","PERIAPSIS":"538.890","MEAN_ANOMALY":"260.9408","BSTAR":"0.00024865000000","TLE_LINE1":"1 49435U 21104AD  23089.42858864  .00003673  00000-0  24865-3 0  9997","ELEMENT_SET_NO":"999","REV_AT_EPOCH":"7658","ARG_OF_PERICENTER":"99.1715","ECCENTRICITY":"0.00011590","RCS_SIZE":"LARGE","MEAN_MOTION_DOT":"0.00003673","MEAN_ELEMENT_THEORY":"SGP4","INCLINATION":"53.2181","SITE":"AFETR"},{"BSTAR":"-0.00113140000000","ELEMENT_SET_NO":"999","ARG_OF_PERICENTER":"95.4027","REV_AT_EPOCH":"7658","TLE_LINE1":"1 49436U 21104AE  23089.42768020 -.00018216  00000-0 -11314-2 0  9997","PERIAPSIS":"538.226","MEAN_ANOMALY":"264.7251","MEAN_ELEMENT_THEORY":"SGP4","SITE":"AFETR","INCLINATION":"53.2165","ECCENTRICITY":"0.00025020","MEAN_MOTION_DOT":"-0.00018216","RCS_SIZE":"LARGE","LAUNCH_DATE":"2021-11-13","SEMIMAJOR_AXIS":"6918.092","NORAD_CAT_ID":"49436","APOAPSIS":"541.688","MEAN_MOTION_DDOT":"0.0000000000000","GP_ID":"229183687","RA_OF_ASC_NODE":"356.1568","MEAN_MOTION":"15.08770877","OBJECT_TYPE":"PAYLOAD","DECAY_DATE":null,"EPOCH":"2023-03-30T10:15:51.569280","PERIOD":"95.442","CLASSIFICATION_TYPE":"U","FILE":"3875726","EPHEMERIS_TYPE":"0","TLE_LINE2":"2 49436  53.2165 356.1568 0002502  95.4027 264.7251 15.08770877 76583","REF_FRAME":"TEME","COUNTRY_CODE":"US","CENTER_NAME":"EARTH","OBJECT_ID":"2021-104AE","OBJECT_NAME":"STARLINK-3049","TIME_SYSTEM":"UTC"},{"MEAN_ELEMENT_THEORY":"SGP4","SITE":"AFETR","INCLINATION":"53.2176","ECCENTRICITY":"0.00012770","MEAN_MOTION_DOT":"0.00020959","RCS_SIZE":"LARGE","BSTAR":"0.00132990000000","ELEMENT_SET_NO":"999","ARG_OF_PERICENTER":"88.8055","REV_AT_EPOCH":"7654","TLE_LINE1":"1 49437U 21104AF  23089.15531399  .00020959  00000-0  13299-2 0  9994","PERIAPSIS":"538.764","MEAN_ANOMALY":"271.3084","DECAY_DATE":null,"EPOCH":"2023-03-30T03:43:39.128736","PERIOD":"95.436","CLASSIFICATION_TYPE":"U","FILE":"3875726","EPHEMERIS_TYPE":"0","TLE_LINE2":"2 49437  53.2176 357.3787 0001277  88.8055 271.3084 15.08871995 76544","COUNTRY_CODE":"US","REF_FRAME":"TEME","CENTER_NAME":"EARTH","OBJECT_ID":"2021-104AF","OBJECT_NAME":"STARLINK-3130","TIME_SYSTEM":"UTC","LAUNCH_DATE":"2021-11-13","SEMIMAJOR_AXIS":"6917.783","NORAD_CAT_ID":"49437","APOAPSIS":"540.531","MEAN_MOTION_DDOT":"0.0000000000000","GP_ID":"229181957","RA_OF_ASC_NODE":"357.3787","MEAN_MOTION":"15.08871995","OBJECT_TYPE":"PAYLOAD"},{"MEAN_ANOMALY":"269.6901","PERIAPSIS":"538.852","TLE_LINE1":"1 49438U 21104AG  23089.47643104  .00004578  00000-0  30545-3 0  9991","ELEMENT_SET_NO":"999","ARG_OF_PERICENTER":"90.4234","REV_AT_EPOCH":"7659","BSTAR":"0.00030545000000","RCS_SIZE":"LARGE","MEAN_MOTION_DOT":"0.00004578","ECCENTRICITY":"0.00012530","INCLINATION":"53.2171","SITE":"AFETR","MEAN_ELEMENT_THEORY":"SGP4","OBJECT_TYPE":"PAYLOAD","RA_OF_ASC_NODE":"355.8697","MEAN_MOTION":"15.08848809","MEAN_MOTION_DDOT":"0.0000000000000","GP_ID":"229182707","SEMIMAJOR_AXIS":"6917.853","NORAD_CAT_ID":"49438","APOAPSIS":"540.585","LAUNCH_DATE":"2021-11-13","OBJECT_NAME":"STARLINK-3044","TIME_SYSTEM":"UTC","OBJECT_ID":"2021-104AG","CENTER_NAME":"EARTH","COUNTRY_CODE":"US","REF_FRAME":"TEME","EPHEMERIS_TYPE":"0","TLE_LINE2":"2 49438  53.2171 355.8697 0001253  90.4234 269.6901 15.08848809 76596","PERIOD":"95.437","CLASSIFICATION_TYPE":"U","FILE":"3875726","DECAY_DATE":null,"EPOCH":"2023-03-30T11:26:03.641856"},{"MEAN_MOTION_DDOT":"0.0000000000000","GP_ID":"229182959","OBJECT_TYPE":"PAYLOAD","MEAN_MOTION":"15.08854360","RA_OF_ASC_NODE":"356.0002","SEMIMAJOR_AXIS":"6917.836","APOAPSIS":"540.585","NORAD_CAT_ID":"49439","LAUNCH_DATE":"2021-11-13","CENTER_NAME":"EARTH","OBJECT_NAME":"STARLINK-3108","TIME_SYSTEM":"UTC","OBJECT_ID":"2021-104AH","CLASSIFICATION_TYPE":"U","PERIOD":"95.437","FILE":"3875726","DECAY_DATE":null,"EPOCH":"2023-03-30T11:10:10.580736","REF_FRAME":"TEME","COUNTRY_CODE":"US","EPHEMERIS_TYPE":"0","TLE_LINE2":"2 49439  53.2171 356.0002 0001277  88.5284 271.5855 15.08854360 76598","PERIAPSIS":"538.818","MEAN_ANOMALY":"271.5855","BSTAR":"0.00204190000000","TLE_LINE1":"1 49439U 21104AH  23089.46540024  .00032371  00000-0  20419-2 0  9998","ELEMENT_SET_NO":"999","ARG_OF_PERICENTER":"88.5284","REV_AT_EPOCH":"7659","ECCENTRICITY":"0.00012770","RCS_SIZE":"LARGE","MEAN_MOTION_DOT":"0.00032371","MEAN_ELEMENT_THEORY":"SGP4","INCLINATION":"53.2171","SITE":"AFETR"},{"MEAN_MOTION":"15.08864255","RA_OF_ASC_NODE":"357.4102","OBJECT_TYPE":"PAYLOAD","MEAN_MOTION_DDOT":"0.0000000000000","GP_ID":"229183188","LAUNCH_DATE":"2021-11-13","SEMIMAJOR_AXIS":"6917.806","NORAD_CAT_ID":"49440","APOAPSIS":"540.616","OBJECT_ID":"2021-104AJ","OBJECT_NAME":"STARLINK-3105","TIME_SYSTEM":"UTC","CENTER_NAME":"EARTH","EPHEMERIS_TYPE":"0","TLE_LINE2":"2 49440  53.2171 357.4102 0001365  84.7973 275.3175 15.08864255 76543","REF_FRAME":"TEME","COUNTRY_CODE":"US","DECAY_DATE":null,"EPOCH":"2023-03-30T03:33:03.870144","PERIOD":"95.436","CLASSIFICATION_TYPE":"U","FILE":"3875726","MEAN_ANOMALY":"275.3175","PERIAPSIS":"538.727","ELEMENT_SET_NO":"999","REV_AT_EPOCH":"7654","ARG_OF_PERICENTER":"84.7973","TLE_LINE1":"1 49440U 21104AJ  23089.14796146  .00022346  00000-0  14167-2 0  9997","BSTAR":"0.00141670000000","MEAN_MOTION_DOT":"0.00022346","RCS_SIZE":"LARGE","ECCENTRICITY":"0.00013650","SITE":"AFETR","INCLINATION":"53.2171","MEAN_ELEMENT_THEORY":"SGP4"},{"EPHEMERIS_TYPE":"0","TLE_LINE2":"2 49441  53.2175 356.0107 0001201  85.3690 274.7439 15.08847836 76597","COUNTRY_CODE":"US","REF_FRAME":"TEME","DECAY_DATE":null,"EPOCH":"2023-03-30T11:03:29.728800","CLASSIFICATION_TYPE":"U","PERIOD":"95.437","FILE":"3875726","OBJECT_ID":"2021-104AK","OBJECT_NAME":"STARLINK-3128","TIME_SYSTEM":"UTC","CENTER_NAME":"EARTH","LAUNCH_DATE":"2021-11-13","SEMIMAJOR_AXIS":"6917.856","NORAD_CAT_ID":"49441","APOAPSIS":"540.552","MEAN_MOTION":"15.08847836","RA_OF_ASC_NODE":"356.0107","OBJECT_TYPE":"PAYLOAD","MEAN_MOTION_DDOT":"0.0000000000000","GP_ID":"229182457","SITE":"AFETR","INCLINATION":"53.2175","MEAN_ELEMENT_THEORY":"SGP4","MEAN_MOTION_DOT":"0.00020409","RCS_SIZE":"LARGE","ECCENTRICITY":"0.00012010","ELEMENT_SET_NO":"999","ARG_OF_PERICENTER":"85.3690","REV_AT_EPOCH":"7659","TLE_LINE1":"1 49441U 21104AK  23089.46076075  .00020409  00000-0  12964-2 0  9996","BSTAR":"0.00129640000000","MEAN_ANOMALY":"274.7439","PERIAPSIS":"538.891"},{"RCS_SIZE":"LARGE","MEAN_MOTION_DOT":"0.00009000","ECCENTRICITY":"0.00008890","INCLINATION":"53.2170","SITE":"AFETR","MEAN_ELEMENT_THEORY":"SGP4","MEAN_ANOMALY":"278.2481","PERIAPSIS":"539.133","TLE_LINE1":"1 49442U 21104AL  23089.47548186  .00009000  00000-0  58283-3 0  9994","REV_AT_EPOCH":"7659","ARG_OF_PERICENTER":"81.8612","ELEMENT_SET_NO":"999","BSTAR":"0.00058283000000","TIME_SYSTEM":"UTC","OBJECT_NAME":"STARLINK-3098","OBJECT_ID":"2021-104AL","CENTER_NAME":"EARTH","REF_FRAME":"TEME","COUNTRY_CODE":"US","TLE_LINE2":"2 49442  53.2170 355.9439 0000889  81.8612 278.2481 15.08839267 76590","EPHEMERIS_TYPE":"0","FILE":"3875726","PERIOD":"95.438","CLASSIFICATION_TYPE":"U","EPOCH":"2023-03-30T11:24:41.632704","DECAY_DATE":null,"OBJECT_TYPE":"PAYLOAD","RA_OF_ASC_NODE":"355.9439","MEAN_MOTION":"15.08839267","GP_ID":"229182208","MEAN_MOTION_DDOT":"0.0000000000000","APOAPSIS":"540.363","NORAD_CAT_ID":"49442","SEMIMAJOR_AXIS":"6917.883","LAUNCH_DATE":"2021-11-13"}];
